{"type": "FeatureCollection", "features": [ {"type": "Feature", "properties": {"norad_id": 34141, "name": "COSMOS 2251 DEB", "group": "cosmos-2251-debris", "lat": 44.00088554635393, "lon": 171.32728982506137, "alt_km": 699.8759272394036, "timestamp": "2025-12-24T03:53:30.041069+00:00", "meta": {"OBJECT_NAME": "COSMOS 2251 DEB", "OBJECT_ID": "1993-036LN", "EPOCH": "2025-12-23T02:41:34.938816", "MEAN_MOTION": 14.49338789, "ECCENTRICITY": 0.00464956, "INCLINATION": 74.011, "RA_OF_ASC_NODE": 9.3741, "ARG_OF_PERICENTER": 91.849, "MEAN_ANOMALY": 325.4318, "EPHEMERIS_TYPE": 0, "CLASSIFICATION_TYPE": "U", "NORAD_CAT_ID": 34141, "ELEMENT_SET_NO": 999, "REV_AT_EPOCH": 87844, "BSTAR": 0.0014544404, "MEAN_MOTION_DOT": 5.609e-05, "MEAN_MOTION_DDOT": 0}, "tle": {"line1": "1 34141U 93036LN  25357.11220994  .00005609  00000+0  14544-2 0  9993", "line2": "2 34141  74.0110   9.3741 0046495  91.8490 325.4318 14.49338789878444"}}, "geometry": {"type": "Point", "coordinates": [171.32728982506137, 44.00088554635393]}}, {"type": "Feature", "properties": {"norad_id": 34270, "name": "COSMOS 2251 DEB", "group": "cosmos-2251-debris", "lat": 22.07926920471726, "lon": -68.70590723743051, "alt_km": 654.1979237779451, "timestamp": "2025-12-24T03:53:30.041079+00:00", "meta": {"OBJECT_NAME": "COSMOS 2251 DEB", "OBJECT_ID": "1993-036LQ", "EPOCH": "2025-12-23T19:35:39.579648", "MEAN_MOTION": 14.65248241, "ECCENTRICITY": 0.0047977, "INCLINATION": 74.0116, "RA_OF_ASC_NODE": 285.2813, "ARG_OF_PERICENTER": 74.7309, "MEAN_ANOMALY": 285.9156, "EPHEMERIS_TYPE": 0, "CLASSIFICATION_TYPE": "U", "NORAD_CAT_ID": 34270, "ELEMENT_SET_NO": 999, "REV_AT_EPOCH": 89258, "BSTAR": 0.00065868, "MEAN_MOTION_DOT": 3.58e-05, "MEAN_MOTION_DDOT": 0}, "tle": {"line1": "1 34270U 93036LQ  25357.81643032  .00003580  00000+0  65868-3 0  9997", "line2": "2 34270  74.0116 285.2813 0047977  74.7309 285.9156 14.65248241892585"}}, "geometry": {"type": "Point", "coordinates": [-68.70590723743051, 22.07926920471726]}}, {"type": "Feature", "properties": {"norad_id": 34271, "name": "COSMOS 2251 DEB", "group": "cosmos-2251-debris", "lat": -21.43588538674928, "lon": 3.59058023661974, "alt_km": 651.5279153679221, "timestamp": "2025-12-24T03:53:30.041089+00:00", "meta": {"OBJECT_NAME": "COSMOS 2251 DEB", "OBJECT_ID": "1993-036LR", "EPOCH": "2025-12-23T18:54:03.786912", "MEAN_MOTION": 14.70993585, "ECCENTRICITY": 0.00182, "INCLINATION": 74.0195, "RA_OF_ASC_NODE": 177.8583, "ARG_OF_PERICENTER": 231.0975, "MEAN_ANOMALY": 148.2753, "EPHEMERIS_TYPE": 0, "CLASSIFICATION_TYPE": "U", "NORAD_CAT_ID": 34271, "ELEMENT_SET_NO": 999, "REV_AT_EPOCH": 88397, "BSTAR": 0.0021218, "MEAN_MOTION_DOT": 0.00013043, "MEAN_MOTION_DDOT": 0}, "tle": {"line1": "1 34271U 93036LR  25357.78754383  .00013043  00000+0  21218-2 0  9991", "line2": "2 34271  74.0195 177.8583 0018200 231.0975 148.2753 14.70993585883978"}}, "geometry": {"type": "Point", "coordinates": [3.59058023661974, -21.43588538674928]}}, {"type": "Feature", "properties": {"norad_id": 34273, "name": "COSMOS 2251 DEB", "group": "cosmos-2251-debris", "lat": -7.120519198758673, "lon": -112.3630444036198, "alt_km": 682.9036514617173, "timestamp": "2025-12-24T03:53:30.041099+00:00", "meta": {"OBJECT_NAME": "COSMOS 2251 DEB", "OBJECT_ID": "1993-036LT", "EPOCH": "2025-12-23T04:08:17.943360", "MEAN_MOTION": 14.61312586, "ECCENTRICITY": 0.00135096, "INCLINATION": 74.0359, "RA_OF_ASC_NODE": 67.4794, "ARG_OF_PERICENTER": 193.2229, "MEAN_ANOMALY": 189.5426, "EPHEMERIS_TYPE": 0, "CLASSIFICATION_TYPE": "U", "NORAD_CAT_ID": 34273, "ELEMENT_SET_NO": 999, "REV_AT_EPOCH": 88774, "BSTAR": 0.00092743619, "MEAN_MOTION_DOT": 4.559e-05, "MEAN_MOTION_DDOT": 0}, "tle": {"line1": "1 34273U 93036LT  25357.17242990  .00004559  00000+0  92744-3 0  9997", "line2": "2 34273  74.0359  67.4794 0013509 193.2229 189.5426 14.61312586887748"}}, "geometry": {"type": "Point", "coordinates": [-112.3630444036198, -7.120519198758673]}}, {"type": "Feature", "properties": {"norad_id": 34274, "name": "COSMOS 2251 DEB", "group": "cosmos-2251-debris", "lat": 52.88080415459906, "lon": 68.83352081135413, "alt_km": 683.5516106785408, "timestamp": "2025-12-24T03:53:30.041109+00:00", "meta": {"OBJECT_NAME": "COSMOS 2251 DEB", "OBJECT_ID": "1993-036LU", "EPOCH": "2025-12-23T13:34:24.941280", "MEAN_MOTION": 14.64897611, "ECCENTRICITY": 0.0021386, "INCLINATION": 74.0036, "RA_OF_ASC_NODE": 47.7082, "ARG_OF_PERICENTER": 196.9601, "MEAN_ANOMALY": 314.4209, "EPHEMERIS_TYPE": 0, "CLASSIFICATION_TYPE": "U", "NORAD_CAT_ID": 34274, "ELEMENT_SET_NO": 999, "REV_AT_EPOCH": 88834, "BSTAR": 0.0010237, "MEAN_MOTION_DOT": 5.465e-05, "MEAN_MOTION_DDOT": 0}, "tle": {"line1": "1 34274U 93036LU  25357.56556645  .00005465  00000+0  10237-2 0  9999", "line2": "2 34274  74.0036  47.7082 0021386 196.9601 314.4209 14.64897611888343"}}, "geometry": {"type": "Point", "coordinates": [68.83352081135413, 52.88080415459906]}}, {"type": "Feature", "properties": {"norad_id": 34276, "name": "COSMOS 2251 DEB", "group": "cosmos-2251-debris", "lat": 40.21949246362469, "lon": 77.62484443233645, "alt_km": 713.727459161214, "timestamp": "2025-12-24T03:53:30.041119+00:00", "meta": {"OBJECT_NAME": "COSMOS 2251 DEB", "OBJECT_ID": "1993-036LW", "EPOCH": "2025-12-23T04:46:29.650656", "MEAN_MOTION": 14.57292007, "ECCENTRICITY": 0.00221967, "INCLINATION": 74.0236, "RA_OF_ASC_NODE": 65.435, "ARG_OF_PERICENTER": 211.2136, "MEAN_ANOMALY": 179.9991, "EPHEMERIS_TYPE": 0, "CLASSIFICATION_TYPE": "U", "NORAD_CAT_ID": 34276, "ELEMENT_SET_NO": 999, "REV_AT_EPOCH": 88745, "BSTAR": 0.00067870159, "MEAN_MOTION_DOT": 3.053e-05, "MEAN_MOTION_DDOT": 0}, "tle": {"line1": "1 34276U 93036LW  25357.19895429  .00003053  00000+0  67870-3 0  9993", "line2": "2 34276  74.0236  65.4350 0022196 211.2136 179.9991 14.57292007887459"}}, "geometry": {"type": "Point", "coordinates": [77.62484443233645, 40.21949246362469]}}, {"type": "Feature", "properties": {"norad_id": 34297, "name": "COSMOS 2251 DEB", "group": "cosmos-2251-debris", "lat": -67.03704507493522, "lon": -139.19614415030162, "alt_km": 767.2684799390936, "timestamp": "2025-12-24T03:53:30.041129+00:00", "meta": {"OBJECT_NAME": "COSMOS 2251 DEB", "OBJECT_ID": "1993-036MT", "EPOCH": "2025-12-23T05:35:32.433792", "MEAN_MOTION": 14.36637883, "ECCENTRICITY": 0.00176869, "INCLINATION": 74.0487, "RA_OF_ASC_NODE": 264.9644, "ARG_OF_PERICENTER": 331.7244, "MEAN_ANOMALY": 191.7029, "EPHEMERIS_TYPE": 0, "CLASSIFICATION_TYPE": "U", "NORAD_CAT_ID": 34297, "ELEMENT_SET_NO": 999, "REV_AT_EPOCH": 88215, "BSTAR": 0.00013024205, "MEAN_MOTION_DOT": 3.58e-06, "MEAN_MOTION_DDOT": 0}, "tle": {"line1": "1 34297U 93036MT  25357.23301428  .00000358  00000+0  13024-3 0  9999", "line2": "2 34297  74.0487 264.9644 0017686 331.7244 191.7029 14.36637883882156"}}, "geometry": {"type": "Point", "coordinates": [-139.19614415030162, -67.03704507493522]}}, {"type": "Feature", "properties": {"norad_id": 34301, "name": "COSMOS 2251 DEB", "group": "cosmos-2251-debris", "lat": 49.582470454416, "lon": 163.67440322660042, "alt_km": 614.8552336595803, "timestamp": "2025-12-24T03:53:30.041146+00:00", "meta": {"OBJECT_NAME": "COSMOS 2251 DEB", "OBJECT_ID": "1993-036MX", "EPOCH": "2025-12-23T16:23:09.472128", "MEAN_MOTION": 14.85067679, "ECCENTRICITY": 0.0010136, "INCLINATION": 74.0056, "RA_OF_ASC_NODE": 144.9444, "ARG_OF_PERICENTER": 208.3898, "MEAN_ANOMALY": 162.1395, "EPHEMERIS_TYPE": 0, "CLASSIFICATION_TYPE": "U", "NORAD_CAT_ID": 34301, "ELEMENT_SET_NO": 999, "REV_AT_EPOCH": 88563, "BSTAR": 0.0033586, "MEAN_MOTION_DOT": 0.00028812, "MEAN_MOTION_DDOT": 0}, "tle": {"line1": "1 34301U 93036MX  25357.68274852  .00028812  00000+0  33586-2 0  9993", "line2": "2 34301  74.0056 144.9444 0010136 208.3898 162.1395 14.85067679885634"}}, "geometry": {"type": "Point", "coordinates": [163.67440322660042, 49.582470454416]}}, {"type": "Feature", "properties": {"norad_id": 34302, "name": "COSMOS 2251 DEB", "group": "cosmos-2251-debris", "lat": 67.55764975270607, "lon": 146.0360720415766, "alt_km": 780.9460314085782, "timestamp": "2025-12-24T03:53:30.041157+00:00", "meta": {"OBJECT_NAME": "COSMOS 2251 DEB", "OBJECT_ID": "1993-036MY", "EPOCH": "2025-12-23T14:15:26.212896", "MEAN_MOTION": 14.39369668, "ECCENTRICITY": 0.0079399, "INCLINATION": 74.1781, "RA_OF_ASC_NODE": 103.7179, "ARG_OF_PERICENTER": 315.9352, "MEAN_ANOMALY": 54.6394, "EPHEMERIS_TYPE": 0, "CLASSIFICATION_TYPE": "U", "NORAD_CAT_ID": 34302, "ELEMENT_SET_NO": 999, "REV_AT_EPOCH": 87877, "BSTAR": 0.0005514, "MEAN_MOTION_DOT": 1.753e-05, "MEAN_MOTION_DDOT": 0}, "tle": {"line1": "1 34302U 93036MY  25357.59405339  .00001753  00000+0  55140-3 0  9996", "line2": "2 34302  74.1781 103.7179 0079399 315.9352  54.6394 14.39369668878778"}}, "geometry": {"type": "Point", "coordinates": [146.0360720415766, 67.55764975270607]}}, {"type": "Feature", "properties": {"norad_id": 34303, "name": "COSMOS 2251 DEB", "group": "cosmos-2251-debris", "lat": 18.75150412458278, "lon": 80.80029438542647, "alt_km": 755.3573543970742, "timestamp": "2025-12-24T03:53:30.041167+00:00", "meta": {"OBJECT_NAME": "COSMOS 2251 DEB", "OBJECT_ID": "1993-036MZ", "EPOCH": "2025-12-23T04:44:10.945824", "MEAN_MOTION": 14.54584938, "ECCENTRICITY": 0.01355692, "INCLINATION": 74.0053, "RA_OF_ASC_NODE": 268.2168, "ARG_OF_PERICENTER": 43.9597, "MEAN_ANOMALY": 104.8589, "EPHEMERIS_TYPE": 0, "CLASSIFICATION_TYPE": "U", "NORAD_CAT_ID": 34303, "ELEMENT_SET_NO": 999, "REV_AT_EPOCH": 88114, "BSTAR": 0.0015621447, "MEAN_MOTION_DOT": 7.518e-05, "MEAN_MOTION_DDOT": 0}, "tle": {"line1": "1 34303U 93036MZ  25357.19734891  .00007518  00000+0  15621-2 0  9995", "line2": "2 34303  74.0053 268.2168 0135569  43.9597 104.8589 14.54584938881141"}}, "geometry": {"type": "Point", "coordinates": [80.80029438542647, 18.75150412458278]}}]}